#dP2018  8 27  0  0  0.00000000      96 __u+U ITR00 FIT  IAC
## 2016  86400.00000000   900.00000000 58357 0.0000000000000
+   88   C01C02C03C04C05C06C07C08C09C10C11C12C13C14E01E02E03
+        E04E05E07E08E09E11E12E14E18E19E24E26E30G01G02G03G04
+        G05G06G07G08G09G10G11G12G13G14G15G16G17G18G19G20G21
+        G22G23G24G25G26G27G28G29G30G31G32J01J02J03R01R02R03
+        R04R05R07R08R09R10R11R13R14R15R16R17R18R19R20R21R22
+        R23R24R26  0  0  0  0  0  0  0  0  0  0  0  0  0  0
++         0  0  0  0  0  0  0  0  0  0  0  0  0  0  0  0  0
++         0  0  0  0  0  0  0  0  0  0  0  0  0  0  0  0  0
++         0  0  0  0  0  0  0  0  0  0  0  0  0  0  0  0  0
++         0  0  0  0  0  0  0  0  0  0  0  0  0  0  0  0  0
++         0  0  0  0  0  0  0  0  0  0  0  0  0  0  0  0  0
++         0  0  0  0  0  0  0  0  0  0  0  0  0  0  0  0  0
%c M  cc GPS ccc cccc cccc cccc cccc ccccc ccccc ccccc ccccc
%c cc cc ccc ccc cccc cccc cccc cccc ccccc ccccc ccccc ccccc
%f  0.0000000  0.000000000  0.00000000000  0.000000000000000
%f  0.0000000  0.000000000  0.00000000000  0.000000000000000
%i    0    0    0    0      0      0      0      0         0
%i    0    0    0    0      0      0      0      0         0
/*                                                          
/*   RSA / INFORMATION & ANALYSIS CENTER (IAC) OF MCC       
/*   ULTRA-RAPID DETERMINATION                              
/* PCV:IGS14_2000 OL/AL:FES2004  NONE     YN ORB:CoN CLK:CoN
*  2018 08 27  4 30  0.00000000
PC01 -32286.473255  27088.464820     95.558450    522.474477
PC02   4394.863581  41918.654563   1051.261471   -131.754744
PC03 -14741.041218  39515.981240    785.362918   -354.453598
PC04 -39614.015106  14404.179438    440.186270   -133.505599
PC05  21878.245880  36039.917294    675.458989    -78.640667
PC06 -24063.146383  30396.093324 -16668.249230    252.940262
PC07 -10493.260040  35840.733426 -18979.561520      5.878677
PC08 -11983.768226  18766.118993  35845.408781    500.865556
PC09 -11928.770575  29909.186091 -27202.058815     61.149037
PC10   -385.650720  41307.729272  -7171.246381    -23.651976
PC11 -25915.920609   6657.670256   7827.976710   -653.226356
PC12 -25083.395449  -5483.966240 -10760.113914    578.453307
PC13   2852.250107  25917.409330  33199.405866   -246.924328
PC14 -18833.110983  12801.594596  16220.786920    277.825001
PE01 -17036.266250 -10043.676652 -22023.484353   -421.596664
PE02  17041.520175   9981.385876  22052.011977     25.103302
PE03  21647.852613   -422.526393 -20183.640232    -70.239423
PE04 -23729.284757  16969.620209   5023.109743   -104.666576
PE05   6858.995839  16479.691500 -23606.261620    204.376235
PE07  11880.866910 -23683.055255  13217.838434    -27.290472
PE08  23541.798885 -17241.417056  -5003.463498   6515.220478
PE09 -11740.497908  23717.801922 -13233.306043   6694.394590
PE11  -2986.267153  16288.071463  24523.147313   4227.398718
PE12 -22668.756524   5871.964356  18109.915850   4917.558932
PE14 -16092.344252 -15575.462318 -23588.481038   6529.058754
PE18  15249.622518   9098.791695  15460.756100   5952.565487
PE19 -20604.884519  -1217.715864  21225.293074    -12.818146
PE24  -1432.359378  27378.391974 -11171.302824   6525.594669
PE26 -17719.326599 -17055.194365 -16469.287906   5547.410301
PE30  13094.739550 -12313.697622  23515.233057   5562.855011
PG01 -22266.019189 -13069.860368   6708.968240    -80.993015
PG02  11949.718012  20453.222627  12809.804359     16.117891
PG03 -14080.604775  -6490.590045  21542.057154    127.608238
PG04   8032.354462 -24789.584398   4032.804697     92.510329
PG05   4192.964922  23755.029162 -10988.825363     -2.689020
PG06  -3423.899098  15892.509164  21026.958843    371.387434
PG07 -19375.840309    -33.631453 -18131.213870    134.761255
PG08 -15359.767564  -8779.481216 -19813.975873   -113.046201
PG09 -25438.228947   6703.935048   3661.879419    509.434280
PG10  11072.542359 -21805.841096 -10106.489981    185.150453
PG11 -24289.274365  -9969.903826  -3801.123467   -722.221740
PG12  10740.377341  12878.680878  20453.296160    311.254510
PG13   6827.564588  13794.909496 -21753.738454    -90.294383
PG14   9025.642410 -16327.852742  19140.191045    -97.521727
PG15  19420.866991   5621.132861 -17639.997695   -347.507535
PG16   -454.880485 -24343.220245 -10248.775717     11.801800
PG17 -18060.135640  14603.990845  13157.882713    -62.729809
PG18 -19697.139470 -17800.348822  -2784.390932     50.282261
PG19  -9758.278980  15542.523714  18956.067384   -408.212433
PG20  14140.809495 -14083.338332 -17598.977157    514.825676
PG21  16832.370323  -4624.422428 -19211.297538   -346.460082
PG22 -12326.022309 -14735.939527  18589.108827   -501.311451
PG23 -23624.535477  -1042.713076  12804.458416   -212.059408
PG24  22043.599299  14896.509667   2382.329070    -54.523644
PG25  15304.151269  -3350.167924  21228.128854   -637.781171
PG26   4517.845849 -26093.428022    424.617551    -39.108299
PG27  -3632.781033 -14481.903595 -22040.771717    350.575123
PG28 -13198.796639  19741.181369 -11327.113638    740.777689
PG29  25784.522706  -4155.361574   4801.793969    388.284242
PG30 -11964.295015  10112.416458 -21437.756862     32.301416
PG31   2102.710361 -17046.319832  20177.039316     97.835897
PG32  16994.067660 -15851.216945  12819.743967   -440.879125
PJ01 -28268.978760  29911.169125  14147.929340   -127.165976
PJ02 -20264.659774  20250.121876 -26672.758858     -6.646454
PJ03 -29702.753575  28876.426058  13186.191495     -1.129920
PR01 -12982.146561   -153.819276  21957.042852     31.109569
PR02 -17458.051551  16574.785487   8548.945193    326.706823
PR03 -10582.617574  21394.209696  -9015.773358    141.619731
PR04   2832.297670  13369.642658 -21524.329708    273.932788
PR05      0.000000      0.000000      0.000000 999999.999999
PR07  10227.149139 -21317.723272   9563.191339    -45.714677
PR08  -2337.486260 -13859.975878  21337.860175     21.605083
PR09   8229.271778  -8623.985232  22576.829041     25.278310
PR10  -2004.878778 -21405.439837  13785.043434     30.500175
PR11 -11444.344500 -22513.330055  -3761.948562    -38.968615
PR13  -8081.776572   8189.186087 -22776.096169    -13.992689
PR14   1879.973939  21330.079439 -13828.493749     30.437267
PR15   9599.691843  23679.005560   -550.221431    -15.334900
PR16  14318.275244  11000.854493  18050.382621    100.262802
PR17  -5476.154423   9945.154488  22839.693490    159.314146
PR18  12855.522998  10487.240191  19361.438586    208.309299
PR19  24328.241001   5792.727309   5035.694925    -58.593114
PR20  21363.510319  -3082.964944 -13557.887457   -350.109866
PR21   5085.070623  -9946.007842 -22940.444246     -0.106950
PR22 -15029.535178 -10136.641732 -18005.903141    -60.250169
PR23 -25245.329237  -3551.673374   -821.143310    174.471518
PR24 -20646.260177   3981.748495  14416.273145   -170.604184
PR26  22059.324593  -2954.987415 -12481.035882     43.473861
EOF
